start=new Date('2023-07-04T00:00:00.000Z').valueOf();
sats=[{"RA_OF_ASC_NODE":"148.7845","APOAPSIS":"548.018","BSTAR":"0.00003075300000","TLE_LINE2":"2 45704  53.0541 148.7845 0001176  97.4080 262.7043 15.06403331170525","EPHEMERIS_TYPE":"0","CLASSIFICATION_TYPE":"U","OBJECT_ID":"2020-035AZ","MEAN_ELEMENT_THEORY":"SGP4","NORAD_CAT_ID":"45704","INCLINATION":"53.0541","DECAY_DATE":null,"OBJECT_NAME":"STARLINK-1409","REF_FRAME":"TEME","GP_ID":"234681429","ECCENTRICITY":"0.00011760","TIME_SYSTEM":"UTC","PERIOD":"95.592","ARG_OF_PERICENTER":"97.4080","SITE":"AFETR","FILE":"3948003","REV_AT_EPOCH":"17052","TLE_LINE1":"1 45704U 20035AZ  23184.07091518  .00000177  00000-0  30753-4 0  9996","RCS_SIZE":"LARGE","EPOCH":"2023-07-03T01:42:07.071552","PERIAPSIS":"546.389","LAUNCH_DATE":"2020-06-04","MEAN_MOTION_DOT":"0.00000177","CENTER_NAME":"EARTH","OBJECT_TYPE":"PAYLOAD","COUNTRY_CODE":"US","ELEMENT_SET_NO":"999","SEMIMAJOR_AXIS":"6925.338","MEAN_MOTION":"15.06403331","MEAN_MOTION_DDOT":"0.0000000000000","MEAN_ANOMALY":"262.7043"},{"FILE":"3948712","TLE_LINE1":"1 45705U 20035BA  23184.62843728 -.00001752  00000-0 -98775-4 0  9996","RCS_SIZE":"LARGE","REV_AT_EPOCH":"17060","GP_ID":"234696379","REF_FRAME":"TEME","SITE":"AFETR","ARG_OF_PERICENTER":"118.9039","PERIOD":"95.592","TIME_SYSTEM":"UTC","ECCENTRICITY":"0.00013290","MEAN_MOTION":"15.06396682","ELEMENT_SET_NO":"999","SEMIMAJOR_AXIS":"6925.359","MEAN_ANOMALY":"241.2083","MEAN_MOTION_DDOT":"0.0000000000000","MEAN_MOTION_DOT":"-0.00001752","CENTER_NAME":"EARTH","LAUNCH_DATE":"2020-06-04","PERIAPSIS":"546.303","EPOCH":"2023-07-03T15:04:56.980992","COUNTRY_CODE":"US","OBJECT_TYPE":"PAYLOAD","CLASSIFICATION_TYPE":"U","OBJECT_ID":"2020-035BA","EPHEMERIS_TYPE":"0","TLE_LINE2":"2 45705  53.0530 146.2833 0001329 118.9039 241.2083 15.06396682170602","APOAPSIS":"548.144","RA_OF_ASC_NODE":"146.2833","BSTAR":"-0.00009877500000","DECAY_DATE":null,"OBJECT_NAME":"STARLINK-1410","INCLINATION":"53.0530","MEAN_ELEMENT_THEORY":"SGP4","NORAD_CAT_ID":"45705"},{"TLE_LINE1":"1 45706U 20035BB  23184.08938183  .00012203  00000-0  83671-3 0  9996","REV_AT_EPOCH":"17094","RCS_SIZE":"LARGE","FILE":"3948033","PERIOD":"95.592","TIME_SYSTEM":"UTC","ARG_OF_PERICENTER":"78.9660","SITE":"AFETR","ECCENTRICITY":"0.00012440","GP_ID":"234682095","REF_FRAME":"TEME","MEAN_ANOMALY":"281.1469","MEAN_MOTION_DDOT":"0.0000000000000","MEAN_MOTION":"15.06398104","SEMIMAJOR_AXIS":"6925.354","ELEMENT_SET_NO":"999","COUNTRY_CODE":"US","OBJECT_TYPE":"PAYLOAD","LAUNCH_DATE":"2020-06-04","PERIAPSIS":"546.358","CENTER_NAME":"EARTH","MEAN_MOTION_DOT":"0.00012203","EPOCH":"2023-07-03T02:08:42.590112","OBJECT_ID":"2020-035BB","CLASSIFICATION_TYPE":"U","TLE_LINE2":"2 45706  53.0534 118.7061 0001244  78.9660 281.1469 15.06398104170944","EPHEMERIS_TYPE":"0","BSTAR":"0.00083671000000","APOAPSIS":"548.081","RA_OF_ASC_NODE":"118.7061","DECAY_DATE":null,"OBJECT_NAME":"STARLINK-1411","INCLINATION":"53.0534","MEAN_ELEMENT_THEORY":"SGP4","NORAD_CAT_ID":"45706"},{"SITE":"AFETR","ARG_OF_PERICENTER":"80.0936","PERIOD":"95.592","TIME_SYSTEM":"UTC","ECCENTRICITY":"0.00013620","GP_ID":"234695875","REF_FRAME":"TEME","TLE_LINE1":"1 45707U 20035BC  23184.55011721  .00007025  00000-0  48998-3 0  9998","RCS_SIZE":"LARGE","REV_AT_EPOCH":"17101","FILE":"3948712","COUNTRY_CODE":"US","OBJECT_TYPE":"PAYLOAD","CENTER_NAME":"EARTH","MEAN_MOTION_DOT":"0.00007025","PERIAPSIS":"546.265","LAUNCH_DATE":"2020-06-04","EPOCH":"2023-07-03T13:12:10.126944","MEAN_ANOMALY":"280.0207","MEAN_MOTION_DDOT":"0.0000000000000","MEAN_MOTION":"15.06401623","ELEMENT_SET_NO":"999","SEMIMAJOR_AXIS":"6925.344","BSTAR":"0.00048998000000","APOAPSIS":"548.152","RA_OF_ASC_NODE":"116.6370","OBJECT_ID":"2020-035BC","CLASSIFICATION_TYPE":"U","EPHEMERIS_TYPE":"0","TLE_LINE2":"2 45707  53.0538 116.6370 0001362  80.0936 280.0207 15.06401623171018","INCLINATION":"53.0538","NORAD_CAT_ID":"45707","MEAN_ELEMENT_THEORY":"SGP4","DECAY_DATE":null,"OBJECT_NAME":"STARLINK-1412"},{"FILE":"3948797","RCS_SIZE":"LARGE","TLE_LINE1":"1 45708U 20035BD  23184.52432245  .00007042  00000-0  49122-3 0  9993","REV_AT_EPOCH":"17101","REF_FRAME":"TEME","GP_ID":"234698660","ECCENTRICITY":"0.00012460","SITE":"AFETR","PERIOD":"95.592","TIME_SYSTEM":"UTC","ARG_OF_PERICENTER":"86.6384","SEMIMAJOR_AXIS":"6925.364","ELEMENT_SET_NO":"999","MEAN_MOTION":"15.06394799","MEAN_MOTION_DDOT":"0.0000000000000","MEAN_ANOMALY":"273.4747","EPOCH":"2023-07-03T12:35:01.459680","CENTER_NAME":"EARTH","MEAN_MOTION_DOT":"0.00007042","PERIAPSIS":"546.367","LAUNCH_DATE":"2020-06-04","OBJECT_TYPE":"PAYLOAD","COUNTRY_CODE":"US","EPHEMERIS_TYPE":"0","TLE_LINE2":"2 45708  53.0537 116.7507 0001246  86.6384 273.4747 15.06394799171011","CLASSIFICATION_TYPE":"U","OBJECT_ID":"2020-035BD","RA_OF_ASC_NODE":"116.7507","APOAPSIS":"548.092","BSTAR":"0.00049122000000","OBJECT_NAME":"STARLINK-1418","DECAY_DATE":null,"NORAD_CAT_ID":"45708","MEAN_ELEMENT_THEORY":"SGP4","INCLINATION":"53.0537"},{"OBJECT_ID":"2020-035BE","CLASSIFICATION_TYPE":"U","TLE_LINE2":"2 45709  53.0537 118.6705 0001489  83.3723 276.7435 15.06404923170945","EPHEMERIS_TYPE":"0","BSTAR":"0.00033665000000","APOAPSIS":"548.230","RA_OF_ASC_NODE":"118.6705","DECAY_DATE":null,"OBJECT_NAME":"STARLINK-1421","INCLINATION":"53.0537","MEAN_ELEMENT_THEORY":"SGP4","NORAD_CAT_ID":"45709","REV_AT_EPOCH":"17094","TLE_LINE1":"1 45709U 20035BE  23184.09674524  .00004737  00000-0  33665-3 0  9997","RCS_SIZE":"LARGE","FILE":"3948114","PERIOD":"95.592","TIME_SYSTEM":"UTC","ARG_OF_PERICENTER":"83.3723","SITE":"AFETR","ECCENTRICITY":"0.00014890","GP_ID":"234684281","REF_FRAME":"TEME","MEAN_ANOMALY":"276.7435","MEAN_MOTION_DDOT":"0.0000000000000","MEAN_MOTION":"15.06404923","SEMIMAJOR_AXIS":"6925.333","ELEMENT_SET_NO":"999","COUNTRY_CODE":"US","OBJECT_TYPE":"PAYLOAD","LAUNCH_DATE":"2020-06-04","PERIAPSIS":"546.167","MEAN_MOTION_DOT":"0.00004737","CENTER_NAME":"EARTH","EPOCH":"2023-07-03T02:19:18.788736"},{"RCS_SIZE":"LARGE","TLE_LINE1":"1 45710U 20035BF  23184.09306746  .00011909  00000-0  81686-3 0  9992","REV_AT_EPOCH":"17094","FILE":"3948114","ECCENTRICITY":"0.00014890","PERIOD":"95.592","TIME_SYSTEM":"UTC","ARG_OF_PERICENTER":"82.0653","SITE":"AFETR","REF_FRAME":"TEME","GP_ID":"234683771","MEAN_MOTION_DDOT":"0.0000000000000","MEAN_ANOMALY":"278.0505","SEMIMAJOR_AXIS":"6925.328","ELEMENT_SET_NO":"999","MEAN_MOTION":"15.06406785","OBJECT_TYPE":"PAYLOAD","COUNTRY_CODE":"US","EPOCH":"2023-07-03T02:14:01.028544","PERIAPSIS":"546.162","LAUNCH_DATE":"2020-06-04","MEAN_MOTION_DOT":"0.00011909","CENTER_NAME":"EARTH","TLE_LINE2":"2 45710  53.0540 118.6869 0001489  82.0653 278.0505 15.06406785170941","EPHEMERIS_TYPE":"0","OBJECT_ID":"2020-035BF","CLASSIFICATION_TYPE":"U","BSTAR":"0.00081686000000","RA_OF_ASC_NODE":"118.6869","APOAPSIS":"548.224","DECAY_DATE":null,"OBJECT_NAME":"STARLINK-1423","NORAD_CAT_ID":"45710","MEAN_ELEMENT_THEORY":"SGP4","INCLINATION":"53.0540"},{"INCLINATION":"53.0543","NORAD_CAT_ID":"45711","MEAN_ELEMENT_THEORY":"SGP4","DECAY_DATE":null,"OBJECT_NAME":"STARLINK-1433","BSTAR":"0.00002826900000","APOAPSIS":"548.047","RA_OF_ASC_NODE":"116.6842","OBJECT_ID":"2020-035BG","CLASSIFICATION_TYPE":"U","TLE_LINE2":"2 45711  53.0543 116.6842 0001170  86.7267 273.3856 15.06392323171011","EPHEMERIS_TYPE":"0","COUNTRY_CODE":"US","OBJECT_TYPE":"PAYLOAD","LAUNCH_DATE":"2020-06-04","PERIAPSIS":"546.427","CENTER_NAME":"EARTH","MEAN_MOTION_DOT":"0.00000140","EPOCH":"2023-07-03T12:56:14.817696","MEAN_ANOMALY":"273.3856","MEAN_MOTION_DDOT":"0.0000000000000","MEAN_MOTION":"15.06392323","ELEMENT_SET_NO":"999","SEMIMAJOR_AXIS":"6925.372","PERIOD":"95.593","ARG_OF_PERICENTER":"86.7267","TIME_SYSTEM":"UTC","SITE":"AFETR","ECCENTRICITY":"0.00011700","GP_ID":"234698172","REF_FRAME":"TEME","TLE_LINE1":"1 45711U 20035BG  23184.53906039  .00000140  00000-0  28269-4 0  9997","REV_AT_EPOCH":"17101","RCS_SIZE":"LARGE","FILE":"3948798"},{"MEAN_MOTION":"15.06402074","SEMIMAJOR_AXIS":"6925.342","ELEMENT_SET_NO":"999","MEAN_ANOMALY":"273.7704","MEAN_MOTION_DDOT":"0.0000000000000","MEAN_MOTION_DOT":"0.00007798","CENTER_NAME":"EARTH","LAUNCH_DATE":"2020-06-04","PERIAPSIS":"546.462","EPOCH":"2023-07-03T12:50:56.705856","COUNTRY_CODE":"US","OBJECT_TYPE":"PAYLOAD","FILE":"3948783","REV_AT_EPOCH":"17101","TLE_LINE1":"1 45712U 20035BH  23184.53537854  .00007798  00000-0  54177-3 0  9995","RCS_SIZE":"LARGE","GP_ID":"234697835","REF_FRAME":"TEME","SITE":"AFETR","PERIOD":"95.592","ARG_OF_PERICENTER":"86.3408","TIME_SYSTEM":"UTC","ECCENTRICITY":"0.00010760","DECAY_DATE":null,"OBJECT_NAME":"STARLINK-1434","INCLINATION":"53.0542","NORAD_CAT_ID":"45712","MEAN_ELEMENT_THEORY":"SGP4","OBJECT_ID":"2020-035BH","CLASSIFICATION_TYPE":"U","EPHEMERIS_TYPE":"0","TLE_LINE2":"2 45712  53.0542 116.7036 0001076  86.3408 273.7704 15.06402074171016","APOAPSIS":"547.952","RA_OF_ASC_NODE":"116.7036","BSTAR":"0.00054177000000"},{"COUNTRY_CODE":"US","OBJECT_TYPE":"PAYLOAD","PERIAPSIS":"546.298","LAUNCH_DATE":"2020-06-04","MEAN_MOTION_DOT":"-0.00000141","CENTER_NAME":"EARTH","EPOCH":"2023-07-03T02:11:20.925888","MEAN_ANOMALY":"269.9615","MEAN_MOTION_DDOT":"0.0000000000000","MEAN_MOTION":"15.06399712","SEMIMAJOR_AXIS":"6925.349","ELEMENT_SET_NO":"999","PERIOD":"95.592","ARG_OF_PERICENTER":"90.1525","TIME_SYSTEM":"UTC","SITE":"AFETR","ECCENTRICITY":"0.00013230","GP_ID":"234684301","REF_FRAME":"TEME","RCS_SIZE":"LARGE","TLE_LINE1":"1 45713U 20035BJ  23184.09121442 -.00000141  00000-0  94018-5 0  9995","REV_AT_EPOCH":"17066","FILE":"3948140","INCLINATION":"53.0543","NORAD_CAT_ID":"45713","MEAN_ELEMENT_THEORY":"SGP4","DECAY_DATE":null,"OBJECT_NAME":"STARLINK-1436","BSTAR":"0.00000940180000","APOAPSIS":"548.131","RA_OF_ASC_NODE":"138.6978","OBJECT_ID":"2020-035BJ","CLASSIFICATION_TYPE":"U","TLE_LINE2":"2 45713  53.0543 138.6978 0001323  90.1525 269.9615 15.06399712170666","EPHEMERIS_TYPE":"0"}];
